IRIDIUM 33 DEB          
1 39778U 97051AAK 26087.01505280  .00003458  00000+0  79393-3 0  9993
2 39778  86.3824 357.4990 0009301  41.6613 318.5302 14.55253325622230
IRIDIUM 33 DEB          
1 39781U 97051AAN 26084.62986015  .00010760  00000+0  41065-2 0  9998
2 39781  86.3742 215.5276 0167081 301.4320  68.8545 14.23293704 95694
IRIDIUM 33 DEB          
1 40996U 97051ABJ 26077.43080010  .00026572  00000+0  18485-2 0  9997
2 40996  86.3493 316.3879 0009754  60.9534  60.8654 15.05331375639237
IRIDIUM 33 DEB          
1 40998U 97051ABL 26079.55472515  .00001671  00000+0  46851-3 0  9991
2 40998  86.3880  11.8556 0009585 105.6376  20.7682 14.45504117 80944
IRIDIUM 33 DEB          
1 46435U 97051ABN 26086.41917767  .00012923  00000+0  34715-2 0  9996
2 46435  86.2813 148.6698 0189804 290.4260  81.7795 14.37836347 94182
IRIDIUM 33 DEB          
1 46734U 97051ABR 26084.40530841  .00002483  00000+0  73414-3 0  9999
2 46734  86.2626 317.7811 0040390 356.4504 184.0485 14.42665972644906
IRIDIUM 33 DEB          
1 46965U 97051ABX 26087.32861169  .00002899  00000+0  58353-3 0  9995
2 46965  86.3313 293.8455 0018136 333.3411 205.4288 14.61162548638092
IRIDIUM 33 DEB          
1 46971U 97051ACD 26071.90396128  .00027757  00000+0  19648-2 0  9990
2 46971  86.3309 290.4510 0007480 347.9303  75.0890 15.04692078655835
IRIDIUM 33 DEB          
1 46972U 97051ACE 26080.03549722  .00001845  00000+0  45931-3 0  9990
2 46972  86.3927 357.0817 0010612 126.4910 247.8233 14.51201793629985
IRIDIUM 33 DEB          
1 46974U 97051ACG 26085.19477861  .00007790  00000+0  20432-2 0  9991
2 46974  86.2979  59.9948 0086952 201.3478 158.4090 14.46873355590032
